{"type":"FeatureCollection","features":[{"type":"Feature","properties":{"feature_id":"EU_COMP_70021314","layer_key":"eau_eu","layer_label":"Eau EU","economic_unit_id":"EU_COMP_70021314","economic_state":"S2","economic_exposure_eur":3260413.0,"economic_damage_eur":425769.0,"economic_damage_ratio_pct":13.059,"economic_asset_count":62,"criticality_territory":"saint-barthelemy","criticality_family":"eu","criticality_scenario":"rp100","criticality_period_years":"100","criticality_hazard":"storm_cmcc"},"geometry":{"type":"Polygon","coordinates":[[[-62.85337438115393,17.89648325182801],[-62.853343057751964,17.896621096434227],[-62.85325902179694,17.896736971688508],[-62.85264166621219,17.89713781118453],[-62.85311459738234,17.897832883430844],[-62.85311185403702,17.89804277088161],[-62.85301554690987,17.89819233008014],[-62.852820915392215,17.898288953758048],[-62.85271016955485,17.898292833224424],[-62.852574848598294,17.89825259650824],[-62.85207814355383,17.898562272236276],[-62.85192037950687,17.89861034003552],[-62.85172237493435,17.898575300392675],[-62.851307501382244,17.898333366949068],[-62.85099118941653,17.89807521489156],[-62.85075777769053,17.897511124780518],[-62.85080027378097,17.897305201929743],[-62.85110344533991,17.896878390247124],[-62.85029908933109,17.895982266916953],[-62.84991256540502,17.895293067481987],[-62.849757628535684,17.89523745059855],[-62.8496458125633,17.895128554215113],[-62.84958832121579,17.89496170093717],[-62.849616672195545,17.894795613719886],[-62.849572705830106,17.89469242239063],[-62.84935630117635,17.894435742707802],[-62.84931370363792,17.89433345859793],[-62.84930523958539,17.89422364190637],[-62.84934793834553,17.89408309123237],[-62.84945488336689,17.893954988438264],[-62.850042020737966,17.893500312978638],[-62.85030294443071,17.893352620907798],[-62.85056027500957,17.893289525737085],[-62.85077887981148,17.893358757068178],[-62.8509286658092,17.893501833758993],[-62.85107230200582,17.893739870966733],[-62.85242311732211,17.895237539269488],[-62.852989759516035,17.895926171960564],[-62.85309586408128,17.896013953928858],[-62.853330388227214,17.896307321932273],[-62.85337438115393,17.89648325182801]],[[-62.85124636910496,17.895043386224984],[-62.850499004053795,17.894211446913218],[-62.85032383104627,17.894214503849916],[-62.85021367262649,17.894299293668958],[-62.850375277239785,17.894661680542185],[-62.850480329114255,17.894766714682394],[-62.85072917221357,17.89524039977379],[-62.85094870101641,17.895235166285623],[-62.851109683197414,17.895323144350503],[-62.85114674888003,17.895164520145922],[-62.85124636910496,17.895043386224984]]]}},{"type":"Feature","properties":{"feature_id":"EU_COMP_70021350","layer_key":"eau_eu","layer_label":"Eau EU","economic_unit_id":"EU_COMP_70021350","economic_state":"S2","economic_exposure_eur":5534286.0,"economic_damage_eur":722708.0,"economic_damage_ratio_pct":13.059,"economic_asset_count":175,"criticality_territory":"saint-barthelemy","criticality_family":"eu","criticality_scenario":"rp100","criticality_period_years":"100","criticality_hazard":"storm_cmcc"},"geometry":{"type":"Polygon","coordinates":[[[-62.851238216289126,17.895739683691506],[-62.85102489799245,17.89580292230955],[-62.85081514948416,17.89574183576879],[-62.850715915717466,17.895648831286127],[-62.850365510507565,17.895140907821872],[-62.85022953573344,17.895248824586385],[-62.850083875608554,17.895285749179337],[-62.849859622490996,17.895262869464247],[-62.84971855347281,17.895177742355852],[-62.848993718804756,17.89574965759691],[-62.84896510502725,17.89592365255706],[-62.84900946595114,17.896016917551965],[-62.84982282856912,17.89707528331359],[-62.84999376938378,17.89724747396098],[-62.85002345632388,17.897455444549678],[-62.8499282909488,17.897643208002755],[-62.850062859285345,17.89788807295647],[-62.850080024899796,17.898028181467307],[-62.85001588291206,17.89822086709034],[-62.84992560044182,17.898333080350653],[-62.85056410047577,17.899263763620766],[-62.850716099970704,17.8996635395302],[-62.850748658141,17.900001354558587],[-62.85077172404778,17.900038426058547],[-62.85135537834135,17.90023335530955],[-62.8514589457345,17.900323139635127],[-62.851546483721265,17.900492946546983],[-62.8515393640734,17.90070447326384],[-62.851375150764504,17.90092182099204],[-62.85111936591953,17.901011566578322],[-62.85094298701161,17.901000436401333],[-62.85078280105142,17.901124187910522],[-62.85060149419754,17.901151371887487],[-62.85042821122506,17.901093519743238],[-62.850287759292264,17.900932343127717],[-62.850259366071946,17.900758760679466],[-62.85030307439147,17.900613887910424],[-62.8501932699795,17.900518283666884],[-62.850058776490386,17.90030281540946],[-62.84997144202832,17.90002128875623],[-62.84994807618484,17.899728281589326],[-62.849882258120374,17.89957708658054],[-62.849673935654636,17.89928849644365],[-62.849476660836245,17.899299479368068],[-62.849311764830105,17.899222368338034],[-62.84876586488112,17.898412582217173],[-62.8485505717344,17.89842133329146],[-62.84836278123826,17.898313008718347],[-62.84830142440923,17.898224654554777],[-62.848265950584505,17.898087734861925],[-62.84828790470429,17.897948240493776],[-62.84834102843872,17.89785401736198],[-62.848184859318806,17.89786813778403],[-62.84801317514633,17.897806077948236],[-62.84771401161069,17.89746668818383],[-62.847658559478674,17.897324855847828],[-62.84743894862579,17.89721942435764],[-62.847346526774544,17.897067635027245],[-62.847351976815126,17.896850578581738],[-62.847282228176795,17.89674140009899],[-62.846626610457115,17.8960544901231],[-62.846586299806624,17.895883083255793],[-62.84663514283262,17.89571372264949],[-62.84676160446546,17.895586403949483],[-62.84691902910129,17.895533186708967],[-62.8466428791912,17.895182657047943],[-62.846588942372605,17.895014719340587],[-62.84664140452761,17.894810913773554],[-62.84681770907436,17.894663580435243],[-62.846735358066276,17.894541079975262],[-62.8467102467086,17.894402074749188],[-62.84675928655774,17.89423276639077],[-62.84688953704762,17.894084316245696],[-62.84683811310018,17.893939720507323],[-62.846862394503795,17.89376556714475],[-62.8469424606123,17.893647144043374],[-62.84703049933438,17.89358270635892],[-62.84717085785104,17.893539795346623],[-62.847317683492825,17.89355157739952],[-62.84749852306689,17.89362363595581],[-62.847592427413325,17.893700139004007],[-62.84765972390467,17.893812109350932],[-62.84768118887347,17.893950533590125],[-62.84815211459596,17.893580240614945],[-62.848292575675075,17.893537638629088],[-62.84843937261084,17.89354974358122],[-62.84861985383158,17.8936605228471],[-62.84936545559599,17.89451934016132],[-62.849778425839794,17.894194031103858],[-62.84983686308796,17.894025031810987],[-62.84997874728426,17.89389356514896],[-62.85011457055174,17.89383888806967],[-62.8502403339021,17.893835185750593],[-62.85046511551664,17.893701660523703],[-62.85061194272635,17.89368989488075],[-62.85071903215837,17.893717182613216],[-62.85084032715991,17.89379726906093],[-62.85090502783483,17.893883407826294],[-62.85094082610974,17.893983819629177],[-62.85094057191621,17.894113693993507],[-62.85111660296309,17.89437712960339],[-62.85111003615354,17.894586939321808],[-62.850997903381526,17.894745582941837],[-62.85113091291188,17.894941598119185],[-62.851335035993415,17.894921374546527],[-62.85150262040884,17.89499296779258],[-62.851598586583165,17.8951000119348],[-62.85163821627209,17.8951990959318],[-62.851641471728925,17.89534013061541],[-62.8515666951671,17.895500580919222],[-62.851238216289126,17.895739683691506]],[[-62.84829643250044,17.894408818043726],[-62.84749210902368,17.89506117965432],[-62.847730014267256,17.8953485120997],[-62.847755600756784,17.895328210369353],[-62.84767830721965,17.89510795834323],[-62.84772374101503,17.894937730222814],[-62.847963238446845,17.89468596912579],[-62.84829643250044,17.894408818043726]]]}},{"type":"Feature","properties":{"feature_id":"EU_COMP_70022130","layer_key":"eau_eu","layer_label":"Eau EU","economic_unit_id":"EU_COMP_70022130","economic_state":"S0","economic_exposure_eur":46010.0,"economic_damage_eur":824.0,"economic_damage_ratio_pct":1.79,"economic_asset_count":2,"criticality_territory":"saint-barthelemy","criticality_family":"eu","criticality_scenario":"rp100","criticality_period_years":"100","criticality_hazard":"storm_cmcc"},"geometry":{"type":"Polygon","coordinates":[[[-62.85259673879951,17.89796324743389],[-62.852353848677275,17.898049437499377],[-62.85207033493892,17.8980006418666],[-62.85187811171991,17.89784422652075],[-62.851783982197404,17.897606311149865],[-62.85181464594018,17.897379605069403],[-62.85193139644814,17.89720543202119],[-62.85229843982741,17.896957081259295],[-62.85250516471931,17.896896603556673],[-62.85270649946386,17.89691780179951],[-62.85288403566281,17.897011152940888],[-62.85301074516637,17.89716244521179],[-62.853067337547344,17.897348645845074],[-62.853049204000314,17.89752866738896],[-62.85297850356189,17.89767254061809],[-62.852874922804936,17.897779491490002],[-62.85259673879951,17.89796324743389]]]}},{"type":"Feature","properties":{"feature_id":"EU_COMP_70022544","layer_key":"eau_eu","layer_label":"Eau EU","economic_unit_id":"EU_COMP_70022544","economic_state":"S0","economic_exposure_eur":735501.0,"economic_damage_eur":13166.0,"economic_damage_ratio_pct":1.79,"economic_asset_count":15,"criticality_territory":"saint-barthelemy","criticality_family":"eu","criticality_scenario":"rp100","criticality_period_years":"100","criticality_hazard":"storm_cmcc"},"geometry":{"type":"Polygon","coordinates":[[[-62.85186936821543,17.9010925048741],[-62.85089853131166,17.900449732983045],[-62.85051944081133,17.900145123125075],[-62.849620995993604,17.89888421542924],[-62.849238389297156,17.8982236397633],[-62.849190038394724,17.898085327854186],[-62.849184373861505,17.89795142598941],[-62.849220351847045,17.89781106855605],[-62.84929011957261,17.897694890518917],[-62.84939985610418,17.897593723331845],[-62.84954742734354,17.897523731352223],[-62.84988418301775,17.897450187731973],[-62.8500829743026,17.897487369239446],[-62.850251772062165,17.89759455487805],[-62.85034293963627,17.897711406970775],[-62.85039181260749,17.89783556086251],[-62.85040387803011,17.897980955746338],[-62.85037248271546,17.898120217245335],[-62.85050478979378,17.898361612447037],[-62.85124420903708,17.899427239311674],[-62.85150766734156,17.899644224189135],[-62.852105761320274,17.90002147515196],[-62.852608952248595,17.900392509911228],[-62.853159339832175,17.90104641735477],[-62.85322261855151,17.901237512224295],[-62.85320404920706,17.90143061925135],[-62.853085365278936,17.901628978404766],[-62.85292076894417,17.90174200001014],[-62.85272352528741,17.9017861136495],[-62.85252366308325,17.90175460337276],[-62.85234159068117,17.901643045784294],[-62.85186936821543,17.9010925048741]]]}},{"type":"Feature","properties":{"feature_id":"EU_COMP_70025729","layer_key":"eau_eu","layer_label":"Eau EU","economic_unit_id":"EU_COMP_70025729","economic_state":"S0","economic_exposure_eur":446970.0,"economic_damage_eur":8003.0,"economic_damage_ratio_pct":1.79,"economic_asset_count":12,"criticality_territory":"saint-barthelemy","criticality_family":"eu","criticality_scenario":"rp100","criticality_period_years":"100","criticality_hazard":"storm_cmcc"},"geometry":{"type":"Polygon","coordinates":[[[-62.850407525980096,17.89433832767649],[-62.849921714507666,17.894719097337294],[-62.84974142150739,17.894792091315566],[-62.84952526391851,17.894792358221707],[-62.849312403265756,17.894697088284126],[-62.849140144987345,17.894821209841417],[-62.84898370989867,17.8948745826701],[-62.848794811834125,17.894874349297226],[-62.84863852113496,17.894820590114634],[-62.84848385372654,17.894695379235458],[-62.84838204854755,17.89448860190462],[-62.8483795993016,17.89429469231894],[-62.84846032922069,17.894106804512653],[-62.848264113801726,17.8939768661625],[-62.84814955579088,17.893776298358155],[-62.848134979961,17.893582877373984],[-62.848198823140535,17.89339883916166],[-62.84833136559315,17.893252201801833],[-62.84877944504854,17.89295068035647],[-62.849022537448896,17.892918854432054],[-62.84922294146006,17.89297958926163],[-62.84936480257815,17.893091297355102],[-62.84977877544692,17.89356967451996],[-62.849967492973626,17.89351667927926],[-62.85016898769215,17.89353639925271],[-62.850347262706634,17.89362844468638],[-62.85045667122703,17.893748062804175],[-62.8505332578477,17.89396458245287],[-62.85050840116628,17.89417016556542],[-62.850407525980096,17.89433832767649]]]}},{"type":"Feature","properties":{"feature_id":"EU_COMP_70053313","layer_key":"eau_eu","layer_label":"Eau EU","economic_unit_id":"EU_COMP_70053313","economic_state":"S0","economic_exposure_eur":73012.0,"economic_damage_eur":1307.0,"economic_damage_ratio_pct":1.79,"economic_asset_count":10,"criticality_territory":"saint-barthelemy","criticality_family":"eu","criticality_scenario":"rp100","criticality_period_years":"100","criticality_hazard":"storm_cmcc"},"geometry":{"type":"Polygon","coordinates":[[[-62.85287609657274,17.896935888760662],[-62.85276346769608,17.89713745663384],[-62.85258132507444,17.897264295280888],[-62.852355604226815,17.897305197523455],[-62.852137645762696,17.897250860074877],[-62.8519288412273,17.89708826220128],[-62.85173676311339,17.896821282090514],[-62.85168345052443,17.896567855322782],[-62.85174070253643,17.896345925288237],[-62.85186656808417,17.896193989072934],[-62.852056866849004,17.896095829747487],[-62.8522720964078,17.896077126904927],[-62.85246587949834,17.896133555194417],[-62.852622357458465,17.896256688173786],[-62.852844905550285,17.896573984103018],[-62.852896676342304,17.896761466356928],[-62.85287609657274,17.896935888760662]]]}}],"metadata":{"source":"complete-analysis economic criticality reconstructed by generate_run_graphs","territory":"saint-barthelemy","family":"eu","scenario":"rp100","scenario_label":"RP100","period_years":"100","hazard":"storm_cmcc","note":"Criticite economique reconstruite avec le moteur PML/interdependances utilise par state_damage_tables. Couleur: etat economique dominant par valeur exposee dans chaque zone hydraulique. Geometrie: geometries d'unites de service hydraulique. Epaisseur: valeur exposee pour les troncons lineaires. Controle carte: S0 12.9%, S1 0.0%, S2 87.1%, S3 0.0%; controle matrice: S0 12.9%, S1 0.0%, S2 87.1%, S3 0.0%. Unites cartographiees: 6/6 geometries, 6 unites economiques.","feature_count":6,"map_reference_pct":{"S0":12.891,"S1":0.0,"S2":87.109,"S3":0.0},"matrix_reference_pct":{"S0":12.891,"S1":0.0,"S2":87.109,"S3":0.0}}}